[{"OBJECT_NAME":"STARLINK-4267","OBJECT_ID":"2022-062AL","EPOCH":"2026-03-09T06:32:35.119680","MEAN_MOTION":15.0884444,"ECCENTRICITY":0.00013438,"INCLINATION":53.2172,"RA_OF_ASC_NODE":25.9927,"ARG_OF_PERICENTER":85.6232,"MEAN_ANOMALY":274.4914,"EPHEMERIS_TYPE":0,"CLASSIFICATION_TYPE":"U","NORAD_CAT_ID":52864,"ELEMENT_SET_NO":999,"REV_AT_EPOCH":20586,"BSTAR":-1.2812798e-5,"MEAN_MOTION_DOT":-4.92e-6,"MEAN_MOTION_DDOT":0},{"OBJECT_NAME":"PEGASUS DEB","OBJECT_ID":"1994-029KL","EPOCH":"2026-03-09T21:20:10.241088","MEAN_MOTION":13.96859935,"ECCENTRICITY":0.05133126,"INCLINATION":81.4593,"RA_OF_ASC_NODE":238.2872,"ARG_OF_PERICENTER":338.9836,"MEAN_ANOMALY":19.0885,"EPHEMERIS_TYPE":0,"CLASSIFICATION_TYPE":"U","NORAD_CAT_ID":24213,"ELEMENT_SET_NO":999,"REV_AT_EPOCH":14823,"BSTAR":0.00070532339,"MEAN_MOTION_DOT":3.072e-5,"MEAN_MOTION_DDOT":0}]
